OBJECT_NAME,OBJECT_ID,EPOCH,MEAN_MOTION,ECCENTRICITY,INCLINATION,RA_OF_ASC_NODE,ARG_OF_PERICENTER,MEAN_ANOMALY,EPHEMERIS_TYPE,CLASSIFICATION_TYPE,NORAD_CAT_ID,ELEMENT_SET_NO,REV_AT_EPOCH,BSTAR,MEAN_MOTION_DOT,MEAN_MOTION_DDOT
IRIDIUM 154,2018-061F,2026-06-15T03:19:30.154080,14.34219726,.00021035,86.3965,57.6636,87.4464,272.6972,0,U,43574,999,41311,.69851914E-4,.215E-5,0
IRIDIUM 163,2018-061G,2026-06-15T02:52:06.069216,14.34216529,.00022641,86.3961,57.5869,83.5624,276.5829,0,U,43575,999,41308,.21750461E-4,.81E-6,0
IRIDIUM 156,2018-061H,2026-06-15T05:36:30.403008,14.34217955,.00020496,86.3961,57.5463,81.1065,279.0362,0,U,43576,999,41309,.48302971E-4,.155E-5,0
IRIDIUM 164,2018-061J,2026-06-15T03:28:38.428608,14.34218165,.00021028,86.3962,57.6238,89.0248,271.1189,0,U,43577,999,41312,.29546386E-4,.103E-5,0
IRIDIUM 159,2018-061K,2026-06-15T06:03:54.489600,14.34217801,.00022691,86.3960,57.5154,83.8761,276.2694,0,U,43578,999,41310,.28266759E-4,.99E-6,0
IRIDIUM 180,2019-002A,2026-06-14T23:21:18.936576,14.34217652,.00022642,86.3970,354.5233,89.4016,270.7439,0,U,43922,999,38867,.1244742E-5,.23E-6,0
IRIDIUM 176,2019-002B,2026-06-15T01:14:48.840288,14.72264492,.00022638,86.6090,354.4342,92.3196,267.8280,0,U,43923,999,39893,.10171705E-3,.666E-5,0
IRIDIUM 168,2019-002C,2026-06-14T23:12:10.884096,14.34218157,.00021682,86.3974,354.6033,88.9196,271.2248,0,U,43924,999,38865,.13385775E-4,.57E-6,0
IRIDIUM 173,2019-002D,2026-06-15T05:35:46.881600,14.34218213,.00022143,86.3969,354.3807,87.2473,272.8976,0,U,43925,999,38867,.33930451E-4,.115E-5,0
IRIDIUM 169,2019-002E,2026-06-15T02:18:15.741792,14.38608113,.00019225,86.4225,26.0678,71.8873,288.2534,0,U,43926,999,38992,.73907143E-4,.246E-5,0
IRIDIUM 172,2019-002F,2026-06-15T05:26:38.869728,14.34217817,.00022589,86.3969,354.3914,88.9109,271.2346,0,U,43927,999,38868,.40032319E-4,.132E-5,0
IRIDIUM 175,2019-002G,2026-06-15T06:22:37.445952,14.43611714,.00022459,86.4510,291.3242,185.3160,174.8018,0,U,43928,999,39870,.72977157E-4,.267E-5,0
IRIDIUM 171,2019-002H,2026-06-15T01:38:18.862368,14.34217657,.00019107,86.3975,354.7635,87.3449,272.7965,0,U,43929,999,38865,.1705482E-3,.497E-5,0
IRIDIUM 170,2019-002J,2026-06-15T01:23:42.901152,14.72264988,.0002349,86.6090,354.4340,88.6741,271.4745,0,U,43930,999,39894,.10203074E-3,.668E-5,0
IRIDIUM 167,2019-002K,2026-06-15T01:29:10.859136,14.34217580,.00017558,86.3967,354.4826,90.0525,270.0872,0,U,43931,999,38865,-.5217906E-5,.5E-7,0
IRIDIUM 181,2023-068S,2026-06-15T05:37:46.094592,14.43311436,.00023324,86.4501,57.6067,88.4239,271.7229,0,U,56726,999,16215,.72925949E-4,.266E-5,0
IRIDIUM 177,2023-068T,2026-06-14T22:57:23.270976,14.80226547,.00023768,86.1960,329.8510,87.1108,273.0385,0,U,56727,999,16603,.12062203E-3,.943E-5,0
IRIDIUM 174,2023-068U,2026-06-15T01:05:56.558400,14.72261272,.00024844,86.6098,354.5865,84.1624,275.9876,0,U,56728,999,16570,.10560169E-3,.691E-5,0
IRIDIUM 178,2023-068V,2026-06-15T01:56:25.937664,14.80230532,.00026491,86.6539,26.2405,86.4810,273.6715,0,U,56729,999,16605,.10907243E-3,.855E-5,0
IRIDIUM 179,2023-068W,2026-06-15T03:26:00.303648,14.80233798,.00024398,86.6781,35.1885,88.7067,271.4434,0,U,56730,999,16606,.88485133E-4,.699E-5,0
