IRIDIUM 154             
1 43574U 18061F   26166.13854345  .00000215  00000+0  69852-4 0  9994
2 43574  86.3965  57.6636 0002103  87.4464 272.6972 14.34219726413118
IRIDIUM 163             
1 43575U 18061G   26166.11951469  .00000081  00000+0  21750-4 0  9994
2 43575  86.3961  57.5869 0002264  83.5624 276.5829 14.34216529413083
IRIDIUM 156             
1 43576U 18061H   26166.23368522  .00000155  00000+0  48303-4 0  9995
2 43576  86.3961  57.5463 0002049  81.1065 279.0362 14.34217955413093
IRIDIUM 164             
1 43577U 18061J   26166.14488922  .00000103  00000+0  29546-4 0  9994
2 43577  86.3962  57.6238 0002102  89.0248 271.1189 14.34218165413124
IRIDIUM 159             
1 43578U 18061K   26166.25271400  .00000099  00000+0  28267-4 0  9991
2 43578  86.3960  57.5154 0002269  83.8761 276.2694 14.34217801413106
IRIDIUM 180             
1 43922U 19002A   26165.97313584  .00000023  00000+0  12447-5 0  9999
2 43922  86.3970 354.5233 0002264  89.4016 270.7439 14.34217652388671
IRIDIUM 176             
1 43923U 19002B   26166.05195417  .00000666  00000+0  10172-3 0  9997
2 43923  86.6090 354.4342 0002263  92.3196 267.8280 14.72264492398936
IRIDIUM 168             
1 43924U 19002C   26165.96679264  .00000057  00000+0  13386-4 0  9999
2 43924  86.3974 354.6033 0002168  88.9196 271.2248 14.34218157388655
IRIDIUM 173             
1 43925U 19002D   26166.23318150  .00000115  00000+0  33930-4 0  9997
2 43925  86.3969 354.3807 0002214  87.2473 272.8976 14.34218213388678
IRIDIUM 169             
1 43926U 19002E   26166.09601553  .00000246  00000+0  73907-4 0  9997
2 43926  86.4225  26.0678 0001922  71.8873 288.2534 14.38608113389928
IRIDIUM 172             
1 43927U 19002F   26166.22683877  .00000132  00000+0  40032-4 0  9999
2 43927  86.3969 354.3914 0002258  88.9109 271.2346 14.34217817388685
IRIDIUM 175             
1 43928U 19002G   26166.26571118  .00000267  00000+0  72977-4 0  9990
2 43928  86.4510 291.3242 0002245 185.3160 174.8018 14.43611714398700
IRIDIUM 171             
1 43929U 19002H   26166.06827387  .00000497  00000+0  17055-3 0  9991
2 43929  86.3975 354.7635 0001910  87.3449 272.7965 14.34217657388654
IRIDIUM 170             
1 43930U 19002J   26166.05813543  .00000668  00000+0  10203-3 0  9999
2 43930  86.6090 354.4340 0002349  88.6741 271.4745 14.72264988398949
IRIDIUM 167             
1 43931U 19002K   26166.06193124  .00000005  00000+0 -52179-5 0  9993
2 43931  86.3967 354.4826 0001755  90.0525 270.0872 14.34217580388653
IRIDIUM 181             
1 56726U 23068S   26166.23456128  .00000266  00000+0  72926-4 0  9990
2 56726  86.4501  57.6067 0002332  88.4239 271.7229 14.43311436162152
IRIDIUM 177             
1 56727U 23068T   26165.95651934  .00000943  00000+0  12062-3 0  9997
2 56727  86.1960 329.8510 0002376  87.1108 273.0385 14.80226547166033
IRIDIUM 174             
1 56728U 23068U   26166.04579350  .00000691  00000+0  10560-3 0  9991
2 56728  86.6098 354.5865 0002484  84.1624 275.9876 14.72261272165703
IRIDIUM 178             
1 56729U 23068V   26166.08085576  .00000855  00000+0  10907-3 0  9995
2 56729  86.6539  26.2405 0002649  86.4810 273.6715 14.80230532166052
IRIDIUM 179             
1 56730U 23068W   26166.14305907  .00000699  00000+0  88485-4 0  9990
2 56730  86.6781  35.1885 0002439  88.7067 271.4434 14.80233798166062
